{"fetched_at":"2026-03-29T16:36:15Z","count":15609,"tles":[{"name":"STARLINK-5774","line1":"1 56029U 23042AV  26087.87721407  .00001672  00000+0  71997-4 0  9994","line2":"2 56029  43.0002 296.5423 0001156 256.3968 103.6754 15.26739119165974","category":"Starlink"}]}